[
    {
        "Altitude(m)": 607886.7392986232,
        "Argument of Periapsis(deg)": 0.0,
        "Eccentricity": 0.0,
        "Inclination(deg)": 60.0,
        "Latitude(deg)": 40.99857326297758,
        "Longitude(deg)": 119.97298243156126,
        "Mean Anomaly(deg)": 49.09090000000002,
        "RAAN(deg)": 190.0,
        "Satellite Name": "Test1 839",
        "Satellite Number": 839,
        "Semi-Major Axis(m)": 6980739.136638005,
        "Time(s)": 0
    },
    {
        "Altitude(m)": 607987.6534318363,
        "Argument of Periapsis(deg)": 0.00010418945913296404,
        "Eccentricity": 0.0,
        "Inclination(deg)": 60.0,
        "Latitude(deg)": 41.463663291936065,
        "Longitude(deg)": 120.47721135155366,
        "Mean Anomaly(deg)": 49.71100614546182,
        "RAAN(deg)": 189.99957995086027,
        "Satellite Name": "Test1 839",
        "Satellite Number": 839,
        "Semi-Major Axis(m)": 6980739.136638005,
        "Time(s)": 10
    },
    {
        "Altitude(m)": 608088.6171665578,
        "Argument of Periapsis(deg)": 0.0002083789182659281,
        "Eccentricity": 0.0,
        "Inclination(deg)": 60.0,
        "Latitude(deg)": 41.92608913653895,
        "Longitude(deg)": 120.98926332901455,
        "Mean Anomaly(deg)": 50.33111229092365,
        "RAAN(deg)": 189.99915990172053,
        "Satellite Name": "Test1 839",
        "Satellite Number": 839,
        "Semi-Major Axis(m)": 6980739.136638005,
        "Time(s)": 20
    },
    {
        "Altitude(m)": 608189.5672814932,
        "Argument of Periapsis(deg)": 0.00031256837739889213,
        "Eccentricity": 0.0,
        "Inclination(deg)": 60.0,
        "Latitude(deg)": 42.385770046724716,
        "Longitude(deg)": 121.50933440638381,
        "Mean Anomaly(deg)": 50.95121843638551,
        "RAAN(deg)": 189.9987398525808,
        "Satellite Name": "Test1 839",
        "Satellite Number": 839,
        "Semi-Major Axis(m)": 6980739.136638005,
        "Time(s)": 30
    },
    {
        "Altitude(m)": 608290.4407820855,
        "Argument of Periapsis(deg)": 0.0004167578365318562,
        "Eccentricity": 0.0,
        "Inclination(deg)": 60.0,
        "Latitude(deg)": 42.842622725369054,
        "Longitude(deg)": 122.03762449285163,
        "Mean Anomaly(deg)": 51.571324581847335,
        "RAAN(deg)": 189.99831980344103,
        "Satellite Name": "Test1 839",
        "Satellite Number": 839,
        "Semi-Major Axis(m)": 6980739.136638005,
        "Time(s)": 40
    },
    {
        "Altitude(m)": 608391.1749317569,
        "Argument of Periapsis(deg)": 0.0005209472956648203,
        "Eccentricity": 0.0,
        "Inclination(deg)": 60.0,
        "Latitude(deg)": 43.29656124889824,
        "Longitude(deg)": 122.5743362693357,
        "Mean Anomaly(deg)": 52.19143072730914,
        "RAAN(deg)": 189.9978997543013,
        "Satellite Name": "Test1 839",
        "Satellite Number": 839,
        "Semi-Major Axis(m)": 6980739.136638005,
        "Time(s)": 50
    },
    {
        "Altitude(m)": 608491.7072829984,
        "Argument of Periapsis(deg)": 0.0006251367547977843,
        "Eccentricity": 0.0,
        "Inclination(deg)": 60.0,
        "Latitude(deg)": 43.747496987192335,
        "Longitude(deg)": 123.1196755865671,
        "Mean Anomaly(deg)": 52.811536872770965,
        "RAAN(deg)": 189.99747970516157,
        "Satellite Name": "Test1 839",
        "Satellite Number": 839,
        "Semi-Major Axis(m)": 6980739.136638005,
        "Time(s)": 60
    },
    {
        "Altitude(m)": 608591.9757082498,
        "Argument of Periapsis(deg)": 0.0007293262139307483,
        "Eccentricity": 0.0,
        "Inclination(deg)": 60.0,
        "Latitude(deg)": 44.195338523011046,
        "Longitude(deg)": 123.67385184151999,
        "Mean Anomaly(deg)": 53.43164301823282,
        "RAAN(deg)": 189.99705965602183,
        "Satellite Name": "Test1 839",
        "Satellite Number": 839,
        "Semi-Major Axis(m)": 6980739.136638005,
        "Time(s)": 70
    },
    {
        "Altitude(m)": 608691.9184305929,
        "Argument of Periapsis(deg)": 0.0008335156730637124,
        "Eccentricity": 0.0,
        "Inclination(deg)": 60.0,
        "Latitude(deg)": 44.63999157120815,
        "Longitude(deg)": 124.23707681729907,
        "Mean Anomaly(deg)": 54.051749163694645,
        "RAAN(deg)": 189.99663960688207,
        "Satellite Name": "Test1 839",
        "Satellite Number": 839,
        "Semi-Major Axis(m)": 6980739.136638005,
        "Time(s)": 80
    },
    {
        "Altitude(m)": 608791.4740542109,
        "Argument of Periapsis(deg)": 0.0009377051321966765,
        "Eccentricity": 0.0,
        "Inclination(deg)": 60.0,
        "Latitude(deg)": 45.0813588980345,
        "Longitude(deg)": 124.80956501009929,
        "Mean Anomaly(deg)": 54.6718553091565,
        "RAAN(deg)": 189.99621955774234,
        "Satellite Name": "Test1 839",
        "Satellite Number": 839,
        "Semi-Major Axis(m)": 6980739.136638005,
        "Time(s)": 90
    },
    {
        "Altitude(m)": 608890.5815946404,
        "Argument of Periapsis(deg)": 0.0010418945913296407,
        "Eccentricity": 0.0,
        "Inclination(deg)": 60.0,
        "Latitude(deg)": 45.51934024087169,
        "Longitude(deg)": 125.39153392810536,
        "Mean Anomaly(deg)": 55.291961454618324,
        "RAAN(deg)": 189.99579950860257,
        "Satellite Name": "Test1 839",
        "Satellite Number": 839,
        "Semi-Major Axis(m)": 6980739.136638005,
        "Time(s)": 100
    },
    {
        "Altitude(m)": 608989.1805087432,
        "Argument of Periapsis(deg)": 0.0011460840504626045,
        "Eccentricity": 0.0,
        "Inclination(deg)": 60.0,
        "Latitude(deg)": 45.95383222878461,
        "Longitude(deg)": 125.983202847074,
        "Mean Anomaly(deg)": 55.91206760008013,
        "RAAN(deg)": 189.9953794594628,
        "Satellite Name": "Test1 839",
        "Satellite Number": 839,
        "Semi-Major Axis(m)": 6980739.136638005,
        "Time(s)": 110
    },
    {
        "Altitude(m)": 609087.2107244609,
        "Argument of Periapsis(deg)": 0.0012502735095955685,
        "Eccentricity": 0.0,
        "Inclination(deg)": 60.0,
        "Latitude(deg)": 46.384728304321946,
        "Longitude(deg)": 126.58479304585165,
        "Mean Anomaly(deg)": 56.532173745541954,
        "RAAN(deg)": 189.9949594103231,
        "Satellite Name": "Test1 839",
        "Satellite Number": 839,
        "Semi-Major Axis(m)": 6980739.136638005,
        "Time(s)": 120
    },
    {
        "Altitude(m)": 609184.6126702612,
        "Argument of Periapsis(deg)": 0.0013544629687285324,
        "Eccentricity": 0.0,
        "Inclination(deg)": 60.0,
        "Latitude(deg)": 46.811918647049566,
        "Longitude(deg)": 127.19652800634074,
        "Mean Anomaly(deg)": 57.15227989100381,
        "RAAN(deg)": 189.99453936118337,
        "Satellite Name": "Test1 839",
        "Satellite Number": 839,
        "Semi-Major Axis(m)": 6980739.136638005,
        "Time(s)": 130
    },
    {
        "Altitude(m)": 609281.327304321,
        "Argument of Periapsis(deg)": 0.0014586524278614966,
        "Eccentricity": 0.0,
        "Inclination(deg)": 60.0,
        "Latitude(deg)": 47.23529009935655,
        "Longitude(deg)": 127.81863206232315,
        "Mean Anomaly(deg)": 57.77238603646563,
        "RAAN(deg)": 189.9941193120436,
        "Satellite Name": "Test1 839",
        "Satellite Number": 839,
        "Semi-Major Axis(m)": 6980739.136638005,
        "Time(s)": 140
    },
    {
        "Altitude(m)": 609377.296143406,
        "Argument of Periapsis(deg)": 0.0015628418869944607,
        "Eccentricity": 0.0,
        "Inclination(deg)": 60.0,
        "Latitude(deg)": 47.654726095126264,
        "Longitude(deg)": 128.45133052008376,
        "Mean Anomaly(deg)": 58.39249218192744,
        "RAAN(deg)": 189.99369926290385,
        "Satellite Name": "Test1 839",
        "Satellite Number": 839,
        "Semi-Major Axis(m)": 6980739.136638005,
        "Time(s)": 150
    },
    {
        "Altitude(m)": 609472.4612914331,
        "Argument of Periapsis(deg)": 0.0016670313461274247,
        "Eccentricity": 0.0,
        "Inclination(deg)": 60.0,
        "Latitude(deg)": 48.070106591932394,
        "Longitude(deg)": 129.09484973507227,
        "Mean Anomaly(deg)": 59.01259832738926,
        "RAAN(deg)": 189.99327921376414,
        "Satellite Name": "Test1 839",
        "Satellite Number": 839,
        "Semi-Major Axis(m)": 6980739.136638005,
        "Time(s)": 160
    },
    {
        "Altitude(m)": 609566.7654677165,
        "Argument of Periapsis(deg)": 0.0017712208052603888,
        "Eccentricity": 0.0,
        "Inclination(deg)": 60.0,
        "Latitude(deg)": 48.481308007483726,
        "Longitude(deg)": 129.74941562878175,
        "Mean Anomaly(deg)": 59.63270447285112,
        "RAAN(deg)": 189.9928591646244,
        "Satellite Name": "Test1 839",
        "Satellite Number": 839,
        "Semi-Major Axis(m)": 6980739.136638005,
        "Time(s)": 170
    },
    {
        "Altitude(m)": 609660.1520348836,
        "Argument of Periapsis(deg)": 0.001875410264393353,
        "Eccentricity": 0.0,
        "Inclination(deg)": 60.0,
        "Latitude(deg)": 48.88820316110742,
        "Longitude(deg)": 130.41525366861543,
        "Mean Anomaly(deg)": 60.25281061831294,
        "RAAN(deg)": 189.99243911548464,
        "Satellite Name": "Test1 839",
        "Satellite Number": 839,
        "Semi-Major Axis(m)": 6980739.136638005,
        "Time(s)": 180
    },
    {
        "Altitude(m)": 609752.5650264225,
        "Argument of Periapsis(deg)": 0.0019795997235263173,
        "Eccentricity": 0.0,
        "Inclination(deg)": 60.0,
        "Latitude(deg)": 49.290661221135586,
        "Longitude(deg)": 131.09258879487916,
        "Mean Anomaly(deg)": 60.872916763774796,
        "RAAN(deg)": 189.99201906634488,
        "Satellite Name": "Test1 839",
        "Satellite Number": 839,
        "Semi-Major Axis(m)": 6980739.136638005,
        "Time(s)": 190
    }
]